STARLINK-2108
1 27387C 21005AQ  21325.15119683  .00006009  00000-0  40268-3 0  3255
2 27387  53.0547 267.5548 0001927  64.0799 265.1002 15.06388937    13
